ORBCOMM FM25            
1 25479U 98053E   25198.77469934  .00000717  00000+0  28097-3 0  9999
2 25479  45.0067 122.3357 0005468  20.5700 339.5368 14.38122591402145
ORBCOMM FM27            
1 25481U 98053G   25198.90068197  .00000721  00000+0  28192-3 0  9994
2 25481  45.0051 121.9302 0002188 350.5209   9.5598 14.38153644402098
ORBCOMM FM30            
1 25980U 99065A   25198.51472505  .00000470  00000+0  20320-3 0  9997
2 25980  45.0325 306.1608 0007624 172.5041 187.5922 14.37344130338815
ORBCOMM FM31            
1 25981U 99065B   25198.62829700  .00000493  00000+0  21122-3 0  9999
2 25981  45.0234 299.1049 0005541 198.5088 161.5559 14.37282870338382
ORBCOMM FM32            
1 25982U 99065C   25198.34727918  .00000564  00000+0  23911-3 0  9994
2 25982  45.0170 317.2165 0007654 186.6501 173.4246 14.36327271338938
